NORAD_CAT_ID,OBJECT_NAME,OBJECT_TYPE,EPOCH,MEAN_MOTION,ECCENTRICITY,INCLINATION,RA_OF_ASC_NODE,ARG_OF_PERICENTER,MEAN_ANOMALY,BSTAR,MEAN_MOTION_DOT,MEAN_MOTION_DDOT,TLE_LINE0,TLE_LINE1,TLE_LINE2,SEMIMAJOR_AXIS,PERIOD,APOGEE,PERIGEE,DECAYED
52003.0,STARLINK-3654,PAYLOAD,2022-08-21 22:00:00,15.08824445,0.0001594,53.2175,76.0596,86.1016,11.1513,0.00097446,0.00015248,0.0,0 STARLINK-3654,1 52003U 22025AZ  22233.91667824  .00015248  00000-0  97446-3 0  9999,2 52003  53.2175  76.0596 0001594  86.1016  11.1513 15.08824445 26820,6917.928000000001,95.439,540.896,538.69,0.0
52003.0,STARLINK-3654,PAYLOAD,2022-08-22 12:00:00,15.08825078,0.000157,53.2177,73.439,94.589,292.9489,0.0026117,0.00041505,0.0,0 STARLINK-3654,1 52003U 22025AZ  22234.50001157  .00041505  00000-0  26117-2 0  9997,2 52003  53.2177  73.4390 0001570  94.5890 292.9489 15.08825078  1302,6917.926,95.438,540.877,538.705,0.0
52003.0,STARLINK-3654,PAYLOAD,2022-08-22 22:00:00,15.08835611,0.0001583,53.2179,71.5706,85.2418,46.7981,0.0014197,0.00022376,0.0,0 STARLINK-3654,1 52003U 22025AZ  22234.91667824  .00022376  00000-0  14197-2 0  9991,2 52003  53.2179  71.5706 0001583  85.2418  46.7981 15.08835611  1307,6917.894,95.438,540.854,538.664,0.0
52003.0,STARLINK-3654,PAYLOAD,2022-08-23 06:00:00,15.0886929,0.0001469,53.218,70.07300000000001,90.3945,53.2427,-0.0042521,-0.00067381,0.0,0 STARLINK-3654,1 52003U 22025AZ  22235.25001157 -.00067381  00000-0 -42521-2 0  9999,2 52003  53.2180  70.0730 0001469  90.3945  53.2427 15.08869290 27020,6917.791,95.436,540.672,538.64,0.0
52003.0,STARLINK-3654,PAYLOAD,2022-08-23 14:00:01,15.0883387,0.0001481,53.2183,68.5761,95.2867,59.9473,1.4352e-05,-6e-07,0.0,0 STARLINK-3654,1 52003U 22025AZ  22235.58334491 -.00000060  00000-0  14352-4 0  9998,2 52003  53.2183  68.5761 0001481  95.2867  59.9473 15.08833870  1302,6917.899,95.438,540.789,538.74,0.0
52003.0,STARLINK-3654,PAYLOAD,2022-08-23 22:00:01,15.08816229,0.0001456,53.2181,67.0814,85.0452,81.8458,0.0018299,0.00028936,0.0,0 STARLINK-3654,1 52003U 22025AZ  22235.91668981  .00028936  00000-0  18299-2 0  9992,2 52003  53.2181  67.0814 0001456  85.0452  81.8458 15.08816229 27126,6917.953,95.439,540.825,538.811,0.0
52003.0,STARLINK-3654,PAYLOAD,2022-08-24 14:00:01,15.08847292,0.0001446,53.2183,64.0873,96.7874,93.2051,-0.00035935,-6.004e-05,0.0,0 STARLINK-3654,1 52003U 22025AZ  22236.58334491 -.00006004  00000-0 -35935-3 0  9993,2 52003  53.2183  64.0873 0001446  96.7874  93.2051 15.08847292  1308,6917.858,95.437,540.7230000000002,538.7230000000002,0.0
52003.0,STARLINK-3654,PAYLOAD,2022-08-24 22:00:00,15.08822398,0.0001411,53.218,62.5924,86.2824,115.3165,0.0021366,0.00033863,0.0,0 STARLINK-3654,1 52003U 22025AZ  22236.91667824  .00033863  00000-0  21366-2 0  9992,2 52003  53.2180  62.5924 0001411  86.2824 115.3165 15.08822398 27272,6917.934,95.439,540.775,538.823,0.0
52003.0,STARLINK-3654,PAYLOAD,2022-08-25 14:00:01,15.08846271,0.0001423,53.2179,59.6004,98.1033,126.6794,0.00090726,0.00014183,0.0,0 STARLINK-3654,1 52003U 22025AZ  22237.58334491  .00014183  00000-0  90726-3 0  9998,2 52003  53.2179  59.6004 0001423  98.1033 126.6794 15.08846271  1308,6917.861,95.437,540.711,538.742,0.0
52003.0,STARLINK-3654,PAYLOAD,2022-08-25 22:00:00,15.08828435,0.0001373,53.2177,58.1033,88.2956,148.1046,0.0024316999999999,0.00038612,0.0,0 STARLINK-3654,1 52003U 22025AZ  22237.91667824  .00038612  00000-0  24317-2 0  9999,2 52003  53.2177  58.1033 0001373  88.2956 148.1046 15.08828435  1301,6917.916,95.438,540.731,538.831,0.0
52003.0,STARLINK-3654,PAYLOAD,2022-08-26 14:00:01,15.08877973,0.0001344,53.2175,55.109,101.334,158.328,-0.0034308999999999,-0.00054534,0.0,0 STARLINK-3654,1 52003U 22025AZ  22238.58335648 -.00054534  00000-0 -34309-2 0  9994,2 52003  53.2175  55.1090 0001344 101.3340 158.3280 15.08877973  1305,6917.764,95.435,540.559,538.7,0.0
52003.0,STARLINK-3654,PAYLOAD,2022-08-26 22:00:00,15.08811988,0.0001225,53.2172,53.614,89.9052,181.3189,0.0021712,0.00034409,0.0,0 STARLINK-3654,1 52003U 22025AZ  22238.91667824  .00034409  00000-0  21712-2 0  9996,2 52003  53.2172  53.6140 0001225  89.9052 181.3189 15.08811988  1308,6917.965999999999,95.439,540.678,538.984,0.0
52003.0,STARLINK-3654,PAYLOAD,2022-08-27 14:00:01,15.08852383,0.0001256,53.2172,50.6197,100.8618,193.5251,-0.0012102,-0.00019503,0.0,0 STARLINK-3654,1 52003U 22025AZ  22239.58334491 -.00019503  00000-0 -12102-2 0  9994,2 52003  53.2172  50.6197 0001256 100.8618 193.5251 15.08852383 27679,6917.843000000003,95.437,540.576,538.839,0.0
52003.0,STARLINK-3654,PAYLOAD,2022-08-27 22:00:00,15.08819832,0.0001200999999999,53.2171,49.1247,89.0951,216.8977,0.002895,0.00046062,0.0,0 STARLINK-3654,1 52003U 22025AZ  22239.91667824  .00046062  00000-0  28950-2 0  9996,2 52003  53.2171  49.1247 0001201  89.0951 216.8977 15.08819832  1303,6917.941999999999,95.439,540.638,538.976,0.0
52003.0,STARLINK-3654,PAYLOAD,2022-08-28 14:00:01,15.08879404,0.0001158,53.2174,46.1304,98.6267,230.5567,-0.0045276,-0.00071704,0.0,0 STARLINK-3654,1 52003U 22025AZ  22240.58334491 -.00071704  00000-0 -45276-2 0  9995,2 52003  53.2174  46.1304 0001158  98.6267 230.5567 15.08879404 27828,6917.76,95.435,540.4259999999998,538.8240000000002,0.0
52003.0,STARLINK-3654,PAYLOAD,2022-08-28 22:00:00,15.08805274,0.0001047,53.2174,44.6353,86.3411,254.4567,0.0029003,0.00046128,0.0,0 STARLINK-3654,1 52003U 22025AZ  22240.91667824  .00046128  00000-0  29003-2 0  9991,2 52003  53.2174  44.6353 0001047  86.3411 254.4567 15.08805274  1301,6917.986999999999,95.44,540.576,539.127,0.0
52003.0,STARLINK-3654,PAYLOAD,2022-08-29 06:00:02,15.08815555,0.0001025,53.2177,43.1371,97.616,254.8238,0.0016268,0.0002568,0.0,0 STARLINK-3654,1 52003U 22025AZ  22241.25002315  .00025680  00000-0  16268-2 0  9996,2 52003  53.2177  43.1371 0001025  97.6160 254.8238 15.08815555 27928,6917.955,95.439,540.529,539.111,0.0
52003.0,STARLINK-3654,PAYLOAD,2022-08-29 14:00:01,15.08851786,0.0001085999999999,53.218,41.6414,95.0601,268.8883,-0.0015795,-0.00025345,0.0,0 STARLINK-3654,1 52003U 22025AZ  22241.58334491 -.00025345  00000-0 -15795-2 0  9999,2 52003  53.2180  41.6414 0001086  95.0601 268.8883 15.08851786  1303,6917.844,95.437,540.461,538.9580000000002,0.0
52003.0,STARLINK-3654,PAYLOAD,2022-08-29 22:00:00,15.08822953,0.0001042999999999,53.218,40.1461,82.8322,292.7192,0.0027914999999999,0.00044398,0.0,0 STARLINK-3654,1 52003U 22025AZ  22241.91667824  .00044398  00000-0  27915-2 0  9999,2 52003  53.2180  40.1461 0001043  82.8322 292.7192 15.08822953  1309,6917.932,95.439,540.519,539.076,0.0
52003.0,STARLINK-3654,PAYLOAD,2022-08-30 06:00:00,15.08839213,0.0001044,53.2184,38.648,94.9326,292.2175,3.1831e-05,2.19e-06,0.0,0 STARLINK-3654,1 52003U 22025AZ  22242.25001157  .00000219  00000-0  31831-4 0  9996,2 52003  53.2184  38.6480 0001044  94.9326 292.2175 15.08839213 28071,6917.8830000000025,95.438,540.47,539.026,0.0
52003.0,STARLINK-3654,PAYLOAD,2022-08-30 14:00:01,15.08848007,0.0001177,53.2187,37.1524,91.4579,307.2835,-0.0021397,-0.00034187,0.0,0 STARLINK-3654,1 52003U 22025AZ  22242.58334491 -.00034187  00000-0 -21397-2 0  9999,2 52003  53.2187  37.1524 0001177  91.4579 307.2835 15.08848007  1304,6917.856,95.437,540.535,538.9069999999998,0.0
52003.0,STARLINK-3654,PAYLOAD,2022-08-30 22:00:00,15.088165300000002,0.0001134,53.2187,35.6572,81.1954,329.1378,0.0024804,0.00039383,0.0,0 STARLINK-3654,1 52003U 22025AZ  22242.91667824  .00039383  00000-0  24804-2 0  9992,2 52003  53.2187  35.6572 0001134  81.1954 329.1378 15.08816530  1307,6917.9519999999975,95.439,540.602,539.033,0.0
52003.0,STARLINK-3654,PAYLOAD,2022-08-31 12:00:00,15.08812301,0.0001254,53.2185,33.0393,93.2129,247.3701,0.0021184999999999,0.00033563,0.0,0 STARLINK-3654,1 52003U 22025AZ  22243.50001157  .00033563  00000-0  21185-2 0  9992,2 52003  53.2185  33.0393 0001254  93.2129 247.3701 15.08812301 28266,6917.965,95.439,540.698,538.9630000000002,0.0
52003.0,STARLINK-3654,PAYLOAD,2022-08-31 14:00:01,15.08808921,0.0001235,53.2185,32.6664,89.5533,343.9232,0.0034218,0.00054545,0.0,0 STARLINK-3654,1 52003U 22025AZ  22243.58334491  .00054545  00000-0  34218-2 0  9994,2 52003  53.2185  32.6664 0001235  89.5533 343.9232 15.08808921  1309,6917.975,95.44,540.695,538.986,0.0
52003.0,STARLINK-3654,PAYLOAD,2022-08-31 22:00:00,15.08812386,0.0001203,53.219,31.1684,81.1565,3.8965,0.0020467,0.00032411,0.0,0 STARLINK-3654,1 52003U 22025AZ  22243.91667824  .00032411  00000-0  20467-2 0  9999,2 52003  53.2190  31.1684 0001203  81.1565   3.8965 15.08812386  1304,6917.965,95.439,540.6619999999998,538.998,0.0
52003.0,STARLINK-3654,PAYLOAD,2022-09-01 06:00:00,15.088061800000002,0.0001147,53.2192,29.6705,94.8987,1.7355,0.0026676,0.00042383,0.0,0 STARLINK-3654,1 52003U 22025AZ  22244.25001157  .00042383  00000-0  26676-2 0  9995,2 52003  53.2192  29.6705 0001147  94.8987   1.7355 15.08806180 28380,6917.984,95.44,540.6419999999998,539.055,0.0
52003.0,STARLINK-3654,PAYLOAD,2022-09-01 14:00:01,15.08848482,0.0001193999999999,53.2193,28.1753,90.2892,17.977999999999994,-0.0017304,-0.00027728,0.0,0 STARLINK-3654,1 52003U 22025AZ  22244.58335648 -.00027728  00000-0 -17304-2 0  9992,2 52003  53.2193  28.1753 0001194  90.2892  17.9780 15.08848482  1300,6917.854,95.437,540.545,538.893,0.0
52003.0,STARLINK-3654,PAYLOAD,2022-09-01 22:00:00,15.08832004,0.0001142,53.2189,26.6797,81.5474,38.253,0.0014803,0.00023344,0.0,0 STARLINK-3654,1 52003U 22025AZ  22244.91667824  .00023344  00000-0  14803-2 0  9992,2 52003  53.2189  26.6797 0001142  81.5474  38.2530 15.08832004 28488,6917.905,95.438,540.56,538.98,0.0
52003.0,STARLINK-3654,PAYLOAD,2022-09-02 14:00:01,15.08862189,0.0001161999999999,53.219,23.6867,90.6144,52.3784,-0.0017973,-0.00028795,0.0,0 STARLINK-3654,1 52003U 22025AZ  22245.58334491 -.00028795  00000-0 -17973-2 0  9995,2 52003  53.2190  23.6867 0001162  90.6144  52.3784 15.08862189  1309,6917.813,95.436,540.481,538.874,0.0
